{
    "links": {
        "self": "http://www.neowsapp.com/rest/v1/neo/3434373?api_key=iIulBulltgU6a56xZRHN4H3l9WmuAYTsLGpBGhQ2"
    },
    "id": "3434373",
    "neo_reference_id": "3434373",
    "name": "(2008 UA92)",
    "designation": "2008 UA92",
    "nasa_jpl_url": "http://ssd.jpl.nasa.gov/sbdb.cgi?sstr=3434373",
    "absolute_magnitude_h": 27.4,
    "estimated_diameter": {
        "kilometers": {
            "estimated_diameter_min": 0.0088014652,
            "estimated_diameter_max": 0.0196806745
        },
        "meters": {
            "estimated_diameter_min": 8.801465209,
            "estimated_diameter_max": 19.6806745089
        },
        "miles": {
            "estimated_diameter_min": 0.0054689752,
            "estimated_diameter_max": 0.0122290004
        },
        "feet": {
            "estimated_diameter_min": 28.8761991163,
            "estimated_diameter_max": 64.5691441559
        }
    },
    "is_potentially_hazardous_asteroid": false,
    "close_approach_data": [
        {
            "close_approach_date": "2008-10-26",
            "close_approach_date_full": "2008-Oct-26 02:23",
            "epoch_date_close_approach": 1224987780000,
            "relative_velocity": {
                "kilometers_per_second": "7.5325883121",
                "kilometers_per_hour": "27117.3179235654",
                "miles_per_hour": "16849.6467953399"
            },
            "miss_distance": {
                "astronomical": "0.0340286347",
                "lunar": "13.2371388983",
                "kilometers": "5090611.270128089",
                "miles": "3163159.1656180682"
            },
            "orbiting_body": "Earth"
        }
    ],
    "orbital_data": {
        "orbit_id": "8",
        "orbit_determination_date": "2017-04-06 09:02:23",
        "first_observation_date": "2008-10-28",
        "last_observation_date": "2008-10-30",
        "data_arc_in_days": 2,
        "observations_used": 17,
        "orbit_uncertainty": "9",
        "minimum_orbit_intersection": ".0335881",
        "jupiter_tisserand_invariant": "3.124",
        "epoch_osculation": "2454768.5",
        "eccentricity": ".6052146452899994",
        "semi_major_axis": "2.602020319742147",
        "inclination": "3.051815221885402",
        "ascending_node_longitude": "39.54723368751382",
        "orbital_period": "1533.078709576353",
        "perihelion_distance": "1.027239514892033",
        "perihelion_argument": "351.5578687631007",
        "aphelion_distance": "4.176801124592262",
        "perihelion_time": "2454764.222926123926",
        "mean_anomaly": "1.00434934342812",
        "mean_motion": ".2348216029296249",
        "equinox": "J2000",
        "orbit_class": {
            "orbit_class_type": "AMO",
            "orbit_class_description": "Near-Earth asteroid orbits similar to that of 1221 Amor",
            "orbit_class_range": "1.017 AU < q (perihelion) < 1.3 AU"
        }
    },
    "is_sentry_object": false
}